{"type": "FeatureCollection", "features": [ {"type": "Feature", "properties": {"norad_id": 66959, "name": "STARLINK-35887", "group": "last-30-days", "lat": 11.830368655273142, "lon": 98.4536343399967, "alt_km": 381.09431227887853, "timestamp": "2025-12-26T03:50:10.809465+00:00", "meta": {"OBJECT_NAME": "STARLINK-35887", "OBJECT_ID": "2025-288A", "EPOCH": "2025-12-25T20:00:01.999008", "MEAN_MOTION": 15.63051782, "ECCENTRICITY": 0.0001643, "INCLINATION": 43.0003, "RA_OF_ASC_NODE": 87.4076, "ARG_OF_PERICENTER": 282.0697, "MEAN_ANOMALY": 56.9655, "EPHEMERIS_TYPE": 0, "CLASSIFICATION_TYPE": "U", "NORAD_CAT_ID": 66959, "ELEMENT_SET_NO": 999, "REV_AT_EPOCH": 393, "BSTAR": -0.024397, "MEAN_MOTION_DOT": -0.02004716, "MEAN_MOTION_DDOT": 0}, "tle": {"line1": "1 66959U 25288A   25359.83335647 -.02004716  00000+0 -24397-1 0  9990", "line2": "2 66959  43.0003  87.4076 0001643 282.0697  56.9655 15.63051782  3936"}}, "geometry": {"type": "Point", "coordinates": [98.4536343399967, 11.830368655273142]}}, {"type": "Feature", "properties": {"norad_id": 66960, "name": "STARLINK-35879", "group": "last-30-days", "lat": 13.101030367271395, "lon": 99.92100747184556, "alt_km": 381.00904919144614, "timestamp": "2025-12-26T03:50:10.809475+00:00", "meta": {"OBJECT_NAME": "STARLINK-35879", "OBJECT_ID": "2025-288B", "EPOCH": "2025-12-25T20:00:01.999008", "MEAN_MOTION": 15.6305932, "ECCENTRICITY": 0.0001661, "INCLINATION": 43.0001, "RA_OF_ASC_NODE": 87.4025, "ARG_OF_PERICENTER": 279.7411, "MEAN_ANOMALY": 61.2079, "EPHEMERIS_TYPE": 0, "CLASSIFICATION_TYPE": "U", "NORAD_CAT_ID": 66960, "ELEMENT_SET_NO": 999, "REV_AT_EPOCH": 393, "BSTAR": -0.024539, "MEAN_MOTION_DOT": -0.02015447, "MEAN_MOTION_DDOT": 0}, "tle": {"line1": "1 66960U 25288B   25359.83335647 -.02015447  00000+0 -24539-1 0  9993", "line2": "2 66960  43.0001  87.4025 0001661 279.7411  61.2079 15.63059320  3932"}}, "geometry": {"type": "Point", "coordinates": [99.92100747184556, 13.101030367271395]}}, {"type": "Feature", "properties": {"norad_id": 66961, "name": "STARLINK-35761", "group": "last-30-days", "lat": 14.361848520963914, "lon": 101.40267000856433, "alt_km": 380.849615076163, "timestamp": "2025-12-26T03:50:10.809485+00:00", "meta": {"OBJECT_NAME": "STARLINK-35761", "OBJECT_ID": "2025-288C", "EPOCH": "2025-12-25T20:00:01.999008", "MEAN_MOTION": 15.63050855, "ECCENTRICITY": 0.0001554, "INCLINATION": 43.0001, "RA_OF_ASC_NODE": 87.3982, "ARG_OF_PERICENTER": 279.4814, "MEAN_ANOMALY": 63.3884, "EPHEMERIS_TYPE": 0, "CLASSIFICATION_TYPE": "U", "NORAD_CAT_ID": 66961, "ELEMENT_SET_NO": 999, "REV_AT_EPOCH": 393, "BSTAR": -0.024376, "MEAN_MOTION_DOT": -0.02003071, "MEAN_MOTION_DDOT": 0}, "tle": {"line1": "1 66961U 25288C   25359.83335647 -.02003071  00000+0 -24376-1 0  9993", "line2": "2 66961  43.0001  87.3982 0001554 279.4814  63.3884 15.63050855  3930"}}, "geometry": {"type": "Point", "coordinates": [101.40267000856433, 14.361848520963914]}}, {"type": "Feature", "properties": {"norad_id": 66962, "name": "STARLINK-35874", "group": "last-30-days", "lat": 15.615440777762856, "lon": 102.90248490813654, "alt_km": 380.7018833232778, "timestamp": "2025-12-26T03:50:10.809495+00:00", "meta": {"OBJECT_NAME": "STARLINK-35874", "OBJECT_ID": "2025-288D", "EPOCH": "2025-12-25T20:00:01.999008", "MEAN_MOTION": 15.63058674, "ECCENTRICITY": 0.0001667, "INCLINATION": 43.0001, "RA_OF_ASC_NODE": 87.3927, "ARG_OF_PERICENTER": 280.0182, "MEAN_ANOMALY": 64.7648, "EPHEMERIS_TYPE": 0, "CLASSIFICATION_TYPE": "U", "NORAD_CAT_ID": 66962, "ELEMENT_SET_NO": 999, "REV_AT_EPOCH": 393, "BSTAR": -0.024515, "MEAN_MOTION_DOT": -0.02013708, "MEAN_MOTION_DDOT": 0}, "tle": {"line1": "1 66962U 25288D   25359.83335647 -.02013708  00000+0 -24515-1 0  9997", "line2": "2 66962  43.0001  87.3927 0001667 280.0182  64.7648 15.63058674  3931"}}, "geometry": {"type": "Point", "coordinates": [102.90248490813654, 15.615440777762856]}}, {"type": "Feature", "properties": {"norad_id": 66963, "name": "STARLINK-36133", "group": "last-30-days", "lat": 16.85751803687964, "lon": 104.42024928001983, "alt_km": 380.55684783507513, "timestamp": "2025-12-26T03:50:10.809507+00:00", "meta": {"OBJECT_NAME": "STARLINK-36133", "OBJECT_ID": "2025-288E", "EPOCH": "2025-12-25T20:00:01.999008", "MEAN_MOTION": 15.63058261, "ECCENTRICITY": 0.0001653, "INCLINATION": 43.0001, "RA_OF_ASC_NODE": 87.3881, "ARG_OF_PERICENTER": 279.755, "MEAN_ANOMALY": 66.9454, "EPHEMERIS_TYPE": 0, "CLASSIFICATION_TYPE": "U", "NORAD_CAT_ID": 66963, "ELEMENT_SET_NO": 999, "REV_AT_EPOCH": 393, "BSTAR": -0.024511, "MEAN_MOTION_DOT": -0.02013385, "MEAN_MOTION_DDOT": 0}, "tle": {"line1": "1 66963U 25288E   25359.83335647 -.02013385  00000+0 -24511-1 0  9995", "line2": "2 66963  43.0001  87.3881 0001653 279.7550  66.9454 15.63058261  3931"}}, "geometry": {"type": "Point", "coordinates": [104.42024928001983, 16.85751803687964]}}, {"type": "Feature", "properties": {"norad_id": 66964, "name": "STARLINK-36104", "group": "last-30-days", "lat": 18.089085328140484, "lon": 105.9585448215049, "alt_km": 380.3419060340166, "timestamp": "2025-12-26T03:50:10.809516+00:00", "meta": {"OBJECT_NAME": "STARLINK-36104", "OBJECT_ID": "2025-288F", "EPOCH": "2025-12-25T20:00:01.999008", "MEAN_MOTION": 15.63062312, "ECCENTRICITY": 0.0001688, "INCLINATION": 43.0001, "RA_OF_ASC_NODE": 87.3829, "ARG_OF_PERICENTER": 282.6901, "MEAN_ANOMALY": 65.9263, "EPHEMERIS_TYPE": 0, "CLASSIFICATION_TYPE": "U", "NORAD_CAT_ID": 66964, "ELEMENT_SET_NO": 999, "REV_AT_EPOCH": 393, "BSTAR": -0.024601, "MEAN_MOTION_DOT": -0.02020138, "MEAN_MOTION_DDOT": 0}, "tle": {"line1": "1 66964U 25288F   25359.83335647 -.02020138  00000+0 -24601-1 0  9990", "line2": "2 66964  43.0001  87.3829 0001688 282.6901  65.9263 15.63062312  3934"}}, "geometry": {"type": "Point", "coordinates": [105.9585448215049, 18.089085328140484]}}, {"type": "Feature", "properties": {"norad_id": 66965, "name": "STARLINK-36067", "group": "last-30-days", "lat": 19.30635355113741, "lon": 107.51754266248096, "alt_km": 380.24262025283133, "timestamp": "2025-12-26T03:50:10.809526+00:00", "meta": {"OBJECT_NAME": "STARLINK-36067", "OBJECT_ID": "2025-288G", "EPOCH": "2025-12-25T20:00:01.999008", "MEAN_MOTION": 15.63049255, "ECCENTRICITY": 0.0001591, "INCLINATION": 43, "RA_OF_ASC_NODE": 87.379, "ARG_OF_PERICENTER": 279.7393, "MEAN_ANOMALY": 70.8001, "EPHEMERIS_TYPE": 0, "CLASSIFICATION_TYPE": "U", "NORAD_CAT_ID": 66965, "ELEMENT_SET_NO": 999, "REV_AT_EPOCH": 393, "BSTAR": -0.024353, "MEAN_MOTION_DOT": -0.02001303, "MEAN_MOTION_DDOT": 0}, "tle": {"line1": "1 66965U 25288G   25359.83335647 -.02001303  00000+0 -24353-1 0  9998", "line2": "2 66965  43.0000  87.3790 0001591 279.7393  70.8001 15.63049255  3932"}}, "geometry": {"type": "Point", "coordinates": [107.51754266248096, 19.30635355113741]}}, {"type": "Feature", "properties": {"norad_id": 66966, "name": "STARLINK-36139", "group": "last-30-days", "lat": 20.511748709400138, "lon": 109.1005616147721, "alt_km": 380.0925650981153, "timestamp": "2025-12-26T03:50:10.809537+00:00", "meta": {"OBJECT_NAME": "STARLINK-36139", "OBJECT_ID": "2025-288H", "EPOCH": "2025-12-25T20:00:01.999008", "MEAN_MOTION": 15.63050192, "ECCENTRICITY": 0.0001626, "INCLINATION": 43.0002, "RA_OF_ASC_NODE": 87.3739, "ARG_OF_PERICENTER": 280.0353, "MEAN_ANOMALY": 72.4207, "EPHEMERIS_TYPE": 0, "CLASSIFICATION_TYPE": "U", "NORAD_CAT_ID": 66966, "ELEMENT_SET_NO": 999, "REV_AT_EPOCH": 393, "BSTAR": -0.024366, "MEAN_MOTION_DOT": -0.02002359, "MEAN_MOTION_DDOT": 0}, "tle": {"line1": "1 66966U 25288H   25359.83335647 -.02002359  00000+0 -24366-1 0  9995", "line2": "2 66966  43.0002  87.3739 0001626 280.0353  72.4207 15.63050192  3936"}}, "geometry": {"type": "Point", "coordinates": [109.1005616147721, 20.511748709400138]}}, {"type": "Feature", "properties": {"norad_id": 66967, "name": "STARLINK-36136", "group": "last-30-days", "lat": 21.702455198531013, "lon": 110.70884500173167, "alt_km": 379.91905201219197, "timestamp": "2025-12-26T03:50:10.809550+00:00", "meta": {"OBJECT_NAME": "STARLINK-36136", "OBJECT_ID": "2025-288J", "EPOCH": "2025-12-25T20:00:01.999008", "MEAN_MOTION": 15.63058026, "ECCENTRICITY": 0.0001573, "INCLINATION": 43, "RA_OF_ASC_NODE": 87.3687, "ARG_OF_PERICENTER": 280.8536, "MEAN_ANOMALY": 73.5179, "EPHEMERIS_TYPE": 0, "CLASSIFICATION_TYPE": "U", "NORAD_CAT_ID": 66967, "ELEMENT_SET_NO": 999, "REV_AT_EPOCH": 393, "BSTAR": -0.024546, "MEAN_MOTION_DOT": -0.02015829, "MEAN_MOTION_DDOT": 0}, "tle": {"line1": "1 66967U 25288J   25359.83335647 -.02015829  00000+0 -24546-1 0  9992", "line2": "2 66967  43.0000  87.3687 0001573 280.8536  73.5179 15.63058026  3933"}}, "geometry": {"type": "Point", "coordinates": [110.70884500173167, 21.702455198531013]}}, {"type": "Feature", "properties": {"norad_id": 66968, "name": "STARLINK-36152", "group": "last-30-days", "lat": 22.877308029791255, "lon": 112.34371078244614, "alt_km": 379.6929465497906, "timestamp": "2025-12-26T03:50:10.809560+00:00", "meta": {"OBJECT_NAME": "STARLINK-36152", "OBJECT_ID": "2025-288K", "EPOCH": "2025-12-25T20:00:01.999008", "MEAN_MOTION": 15.63061043, "ECCENTRICITY": 0.0001612, "INCLINATION": 43.0002, "RA_OF_ASC_NODE": 87.3637, "ARG_OF_PERICENTER": 284.4717, "MEAN_ANOMALY": 71.8145, "EPHEMERIS_TYPE": 0, "CLASSIFICATION_TYPE": "U", "NORAD_CAT_ID": 66968, "ELEMENT_SET_NO": 999, "REV_AT_EPOCH": 393, "BSTAR": -0.02459, "MEAN_MOTION_DOT": -0.02019211, "MEAN_MOTION_DDOT": 0}, "tle": {"line1": "1 66968U 25288K   25359.83335647 -.02019211  00000+0 -24590-1 0  9991", "line2": "2 66968  43.0002  87.3637 0001612 284.4717  71.8145 15.63061043  3933"}}, "geometry": {"type": "Point", "coordinates": [112.34371078244614, 22.877308029791255]}}]}